STARLINK-1835
1 46782U 20074AV  26092.83335647  .00101356  00000+0  10405-2 0  9995
2 46782  53.0427 156.9981 0008897  50.4015  21.9730 15.64104595  5935
